{
  "type": "FeatureCollection",
  "features": [
    {
      "type": "Feature",
      "properties": {
        "norad_id": 66947,
        "name": "STARLINK-36089",
        "group": "last-30-days",
        "lat": 46.23608592220428,
        "lon": 121.74767479633906,
        "alt_km": 364.2277393430413,
        "timestamp": "2025-12-24T03:53:28.363643+00:00",
        "meta_object_name": "STARLINK-36089",
        "meta_object_id": "2025-286Y",
        "meta_epoch": "2025-12-23T20:00:01.000224",
        "meta_mean_motion": 15.67091443,
        "meta_eccentricity": 0.0001265,
        "meta_inclination": 53.1592,
        "meta_ra_of_asc_node": 354.8803,
        "meta_arg_of_pericenter": 79.7753,
        "meta_mean_anomaly": 340.5664,
        "meta_ephemeris_type": 0,
        "meta_classification_type": "U",
        "meta_norad_cat_id": 66947,
        "meta_element_set_no": 999,
        "meta_rev_at_epoch": 377,
        "meta_bstar": -0.020215,
        "meta_mean_motion_dot": -0.01944878,
        "meta_mean_motion_ddot": 0,
        "tle_line1": "1 66947U 25286Y   25357.83334491 -.01944878  00000+0 -20215-1 0  9995",
        "tle_line2": "2 66947  53.1592 354.8803 0001265  79.7753 340.5664 15.67091443  3777"
      },
      "geometry": {
        "type": "Point",
        "coordinates": [
          121.74767479633906,
          46.23608592220428
        ]
      }
    },
    {
      "type": "Feature",
      "properties": {
        "norad_id": 66948,
        "name": "STARLINK-36116",
        "group": "last-30-days",
        "lat": 47.16506804177754,
        "lon": 119.30515657488756,
        "alt_km": 364.18860133836006,
        "timestamp": "2025-12-24T03:53:28.363653+00:00",
        "meta_object_name": "STARLINK-36116",
        "meta_object_id": "2025-286Z",
        "meta_epoch": "2025-12-23T20:00:01.000224",
        "meta_mean_motion": 15.67094887,
        "meta_eccentricity": 0.0001116,
        "meta_inclination": 53.1591,
        "meta_ra_of_asc_node": 354.8846,
        "meta_arg_of_pericenter": 76.135,
        "meta_mean_anomaly": 342.2914,
        "meta_ephemeris_type": 0,
        "meta_classification_type": "U",
        "meta_norad_cat_id": 66948,
        "meta_element_set_no": 999,
        "meta_rev_at_epoch": 377,
        "meta_bstar": -0.020284,
        "meta_mean_motion_dot": -0.01950902,
        "meta_mean_motion_ddot": 0,
        "tle_line1": "1 66948U 25286Z   25357.83334491 -.01950902  00000+0 -20284-1 0  9997",
        "tle_line2": "2 66948  53.1591 354.8846 0001116  76.1350 342.2914 15.67094887  3775"
      },
      "geometry": {
        "type": "Point",
        "coordinates": [
          119.30515657488756,
          47.16506804177754
        ]
      }
    },
    {
      "type": "Feature",
      "properties": {
        "norad_id": 66949,
        "name": "STARLINK-36096",
        "group": "last-30-days",
        "lat": 45.25625979877935,
        "lon": 124.10817646125012,
        "alt_km": 364.5348379658426,
        "timestamp": "2025-12-24T03:53:28.363663+00:00",
        "meta_object_name": "STARLINK-36096",
        "meta_object_id": "2025-286AA",
        "meta_epoch": "2025-12-23T20:00:01.000224",
        "meta_mean_motion": 15.67090387,
        "meta_eccentricity": 9.31e-05,
        "meta_inclination": 53.1592,
        "meta_ra_of_asc_node": 354.8769,
        "meta_arg_of_pericenter": 88.3322,
        "meta_mean_anomaly": 333.9275,
        "meta_ephemeris_type": 0,
        "meta_classification_type": "U",
        "meta_norad_cat_id": 66949,
        "meta_element_set_no": 999,
        "meta_rev_at_epoch": 377,
        "meta_bstar": -0.020175,
        "meta_mean_motion_dot": -0.01941203,
        "meta_mean_motion_ddot": 0,
        "tle_line1": "1 66949U 25286AA  25357.83334491 -.01941203  00000+0 -20175-1 0  9991",
        "tle_line2": "2 66949  53.1592 354.8769 0000931  88.3322 333.9275 15.67090387  3777"
      },
      "geometry": {
        "type": "Point",
        "coordinates": [
          124.10817646125012,
          45.25625979877935
        ]
      }
    },
    {
      "type": "Feature",
      "properties": {
        "norad_id": 66950,
        "name": "STARLINK-36111",
        "group": "last-30-days",
        "lat": 43.155226121536856,
        "lon": 128.59053971943916,
        "alt_km": 364.7552136018803,
        "timestamp": "2025-12-24T03:53:28.363675+00:00",
        "meta_object_name": "STARLINK-36111",
        "meta_object_id": "2025-286AB",
        "meta_epoch": "2025-12-23T20:00:01.000224",
        "meta_mean_motion": 15.67094771,
        "meta_eccentricity": 0.0001252,
        "meta_inclination": 53.1593,
        "meta_ra_of_asc_node": 354.8686,
        "meta_arg_of_pericenter": 78.9862,
        "meta_mean_anomaly": 347.1059,
        "meta_ephemeris_type": 0,
        "meta_classification_type": "U",
        "meta_norad_cat_id": 66950,
        "meta_element_set_no": 999,
        "meta_rev_at_epoch": 377,
        "meta_bstar": -0.02027,
        "meta_mean_motion_dot": -0.01949801,
        "meta_mean_motion_ddot": 0,
        "tle_line1": "1 66950U 25286AB  25357.83334491 -.01949801  00000+0 -20270-1 0  9991",
        "tle_line2": "2 66950  53.1593 354.8686 0001252  78.9862 347.1059 15.67094771  3777"
      },
      "geometry": {
        "type": "Point",
        "coordinates": [
          128.59053971943916,
          43.155226121536856
        ]
      }
    },
    {
      "type": "Feature",
      "properties": {
        "norad_id": 66951,
        "name": "STARLINK-35999",
        "group": "last-30-days",
        "lat": 42.043814338218354,
        "lon": 130.7104918556977,
        "alt_km": 364.97419724202246,
        "timestamp": "2025-12-24T03:53:28.363688+00:00",
        "meta_object_name": "STARLINK-35999",
        "meta_object_id": "2025-286AC",
        "meta_epoch": "2025-12-23T20:00:01.000224",
        "meta_mean_motion": 15.67089574,
        "meta_eccentricity": 0.0001215,
        "meta_inclination": 53.1593,
        "meta_ra_of_asc_node": 354.8645,
        "meta_arg_of_pericenter": 76.9586,
        "meta_mean_anomaly": 351.0504,
        "meta_ephemeris_type": 0,
        "meta_classification_type": "U",
        "meta_norad_cat_id": 66951,
        "meta_element_set_no": 999,
        "meta_rev_at_epoch": 377,
        "meta_bstar": -0.020168,
        "meta_mean_motion_dot": -0.01940738,
        "meta_mean_motion_ddot": 0,
        "tle_line1": "1 66951U 25286AC  25357.83334491 -.01940738  00000+0 -20168-1 0  9998",
        "tle_line2": "2 66951  53.1593 354.8645 0001215  76.9586 351.0504 15.67089574  3777"
      },
      "geometry": {
        "type": "Point",
        "coordinates": [
          130.7104918556977,
          42.043814338218354
        ]
      }
    },
    {
      "type": "Feature",
      "properties": {
        "norad_id": 66952,
        "name": "STARLINK-36122",
        "group": "last-30-days",
        "lat": 44.226953312398365,
        "lon": 126.39092456865679,
        "alt_km": 364.6653724424714,
        "timestamp": "2025-12-24T03:53:28.363699+00:00",
        "meta_object_name": "STARLINK-36122",
        "meta_object_id": "2025-286AD",
        "meta_epoch": "2025-12-23T20:00:01.000224",
        "meta_mean_motion": 15.67095045,
        "meta_eccentricity": 0.0001076,
        "meta_inclination": 53.1592,
        "meta_ra_of_asc_node": 354.8727,
        "meta_arg_of_pericenter": 79.8363,
        "meta_mean_anomaly": 344.3402,
        "meta_ephemeris_type": 0,
        "meta_classification_type": "U",
        "meta_norad_cat_id": 66952,
        "meta_element_set_no": 999,
        "meta_rev_at_epoch": 377,
        "meta_bstar": -0.020278,
        "meta_mean_motion_dot": -0.0195037,
        "meta_mean_motion_ddot": 0,
        "tle_line1": "1 66952U 25286AD  25357.83334491 -.01950370  00000+0 -20278-1 0  9994",
        "tle_line2": "2 66952  53.1592 354.8727 0001076  79.8363 344.3402 15.67095045  3770"
      },
      "geometry": {
        "type": "Point",
        "coordinates": [
          126.39092456865679,
          44.226953312398365
        ]
      }
    },
    {
      "type": "Feature",
      "properties": {
        "norad_id": 66953,
        "name": "HULIANWANG DIGUI-114",
        "group": "last-30-days",
        "lat": -43.39534745633216,
        "lon": 165.32366543825057,
        "alt_km": 1015.416515918836,
        "timestamp": "2025-12-24T03:53:28.363709+00:00",
        "meta_object_name": "HULIANWANG DIGUI-114",
        "meta_object_id": "2025-287A",
        "meta_epoch": "2025-12-20T09:09:14.655168",
        "meta_mean_motion": 13.66161866,
        "meta_eccentricity": 0.00096738,
        "meta_inclination": 86.496,
        "meta_ra_of_asc_node": 343.3747,
        "meta_arg_of_pericenter": 185.0352,
        "meta_mean_anomaly": 175.071,
        "meta_ephemeris_type": 0,
        "meta_classification_type": "U",
        "meta_norad_cat_id": 66953,
        "meta_element_set_no": 999,
        "meta_rev_at_epoch": 157,
        "meta_bstar": 3.033618e-06,
        "meta_mean_motion_dot": 1.9e-07,
        "meta_mean_motion_ddot": 0,
        "tle_line1": "1 66953U 25287A   25354.38141962  .00000019  00000+0  30336-5 0  9995",
        "tle_line2": "2 66953  86.4960 343.3747 0009673 185.0352 175.0710 13.66161866  1572"
      },
      "geometry": {
        "type": "Point",
        "coordinates": [
          165.32366543825057,
          -43.39534745633216
        ]
      }
    }
  ]
}